CUBEBUG-2 (LO-74)       
1 39440U 13066AA  26168.80003132  .00004032  00000+0  37357-3 0  9992
2 39440  97.8909 117.7807 0058350  27.1118 333.3127 14.93766530677080
FUNCUBE-1 (AO-73)       
1 39444U 13066AE  26168.45428207  .00005112  00000+0  31861-3 0  9995
2 39444  97.8279 139.9057 0035653 199.8844 160.0997 15.09493115679706
UWE-3                   
1 39446U 13066AG  26168.81721396  .00003675  00000+0  31732-3 0  9991
2 39446  97.8697 124.8951 0047468 319.0483  40.7177 14.97029101677674
UNISAT-6                
1 40012U 14033C   26168.40223077  .00001884  00000+0  20612-3 0  9990
2 40012  97.7880 321.1100 0046246  68.6169 291.9973 14.88246960646198
DUCHIFAT-1              
1 40021U 14033M   26168.72515266  .00090047  00000+0  92235-3 0  9998
2 40021  98.0453 227.9612 0002741 116.8844 243.2694 15.64688216655837
QB50P1                  
1 40025U 14033R   26168.54551088  .00005822  00000+0  28772-3 0  9996
2 40025  98.0960 179.7168 0007823 213.7845 146.2890 15.18264690653088
LILACSAT-2              
1 40908U 15049K   26168.85274291  .00014376  00000+0  24503-3 0  9998
2 40908  97.4639 205.7197 0005534 241.6012 118.4682 15.51463550595852
FOX-1A (AO-85)          
1 40967U 15058D   26168.62085904  .00001835  00000+0  17288-3 0  9997
2 40967  64.7761 277.6363 0130499  56.4134 304.9355 14.90971345113638
CAS-2T & KS-1Q          
1 41847U 16066G   26168.79471087  .00001433  00000+0  20773-3 0  9991
2 41847  98.3822 244.5241 0342813 127.6417 235.6409 14.44696391504880
RADFXSAT (FOX-1B)       
1 43017U 17073E   26168.60486874  .00005679  00000+0  24962-3 0  9991
2 43017  97.4696  35.8108 0149538 327.7970  31.4193 15.12722439465459
DIWATA-2B               
1 43678U 18084H   26168.83675285  .00002241  00000+0  18304-3 0  9993
2 43678  98.1177   5.0732 0012506 167.9644 192.1880 15.00455475416311
ES'HAIL 2               
1 43700U 18090A   26168.80827088  .00000139  00000+0  00000+0 0  9997
2 43700   0.0175  15.7240 0001649 108.2888  98.7998  1.00270986 27689
FOX-1CLIFF (AO-95)      
1 43770U 18099N   26168.40539693  .00008770  00000+0  33623-3 0  9991
2 43770  97.4379 228.6506 0007951 357.1065   3.0126 15.26715554413258
ITASAT                  
1 43786U 18099AE  26168.61452307  .00005652  00000+0  27237-3 0  9997
2 43786  97.4024 220.1177 0012039 358.8132   1.3072 15.19062139412974
JY1SAT (JO-97)          
1 43803U 18099AX  26168.16099664  .00012621  00000+0  39004-3 0  9999
2 43803  97.4126 230.9950 0004332 262.3288  97.7462 15.33652151413623
UWE-4                   
1 43880U 18111E   26168.79759647  .00027737  00000+0  56593-3 0  9998
2 43880  97.5854  97.2166 0005426 339.8201  20.2832 15.46158858410875
TIANYAN 01              
1 44881U 19093C   26168.85250294  .00000386  00000+0  49559-4 0  9997
2 44881  97.7536 241.0683 0015116  84.7597 275.5344 14.86520130351517
RS-44 & BREEZE-KM R/B   
1 44909U 19096E   26168.55246389  .00000013  00000+0  73756-6 0  9993
2 44909  82.5218 339.4621 0218184 143.3147 218.3119 12.79748854302396
SALSAT                  
1 46495U 20068K   26168.53797512  .00006219  00000+0  21821-3 0  9990
2 46495  97.8847 171.6239 0008040 306.6544  53.3955 15.29803905315418
XW-3 (CAS-9)            
1 50466U 21131B   26168.88764174  .00000308  00000+0  10879-3 0  9995
2 50466  98.4987 261.2735 0005391  95.1408 265.0396 14.41357716235212
GREENCUBE (IO-117)      
1 53109U 22080E   26164.29338770 -.00000003  00000+0  00000+0 0  9990
2 53109  70.1444 299.5995 0008910 290.4576  69.5127  6.42583230 91811
UMKA 1 (RS40S)          
1 57172U 23091G   26168.81767476  .00004827  00000+0  22142-3 0  9990
2 57172  97.5047 227.5124 0014251 115.6540 244.6169 15.20824752164104
CUBESX-HSE 3 (RS42S)    
1 57178U 23091N   26168.82733683  .00010697  00000+0  35636-3 0  9994
2 57178  97.5089 234.4226 0012032  92.8902 267.3716 15.31229214164529
MONITOR-3 (RS58S)       
1 57180U 23091Q   26168.85323903  .00008851  00000+0  32742-3 0  9994
2 57180  97.5079 232.3041 0013100  98.7634 261.5090 15.27852989164399
MONITOR-4 (RS57S)       
1 57182U 23091S   26168.83225877  .00008616  00000+0  31795-3 0  9991
2 57182  97.5073 232.2544 0013094  99.1521 261.1200 15.27938570164394
MONITOR-2 (RS39S)       
1 57184U 23091U   26168.83971985  .00004312  00000+0  20946-3 0  9996
2 57184  97.5070 227.1184 0012750 109.1111 251.1505 15.18915809164051
SVYATOBOR 1 (RS60S)     
1 57187U 23091X   26168.84590476  .00007538  00000+0  29006-3 0  9991
2 57187  97.5086 232.6664 0010878  92.5278 267.7206 15.26625268164410
VIZARD-METEO (RS38S)    
1 57189U 23091Z   26168.79906593  .00014290  00000+0  40875-3 0  9998
2 57189  97.5090 238.2965 0008220  75.8337 284.3820 15.36043394164783
POLYTECH-UNIVERSE 3 (R*)
1 57191U 23091AB  26168.80096470  .00003909  00000+0  18883-3 0  9996
2 57191  97.5045 226.5844 0016893 124.7817 235.5010 15.19117926164046
UTMN 2 (RS27S)          
1 57203U 23091AP  26168.84457403  .00010684  00000+0  34713-3 0  9999
2 57203  97.5084 236.0746 0009227  81.7253 278.5034 15.32066245164640
